[{"OBJECT_NAME":"IRIDIUM 179","OBJECT_ID":"2023-068W","EPOCH":"2026-03-09T22:21:59.547744","MEAN_MOTION":14.80238607,"ECCENTRICITY":0.00023232,"INCLINATION":86.672,"RA_OF_ASC_NODE":75.5287,"ARG_OF_PERICENTER":95.2951,"MEAN_ANOMALY":264.8536,"EPHEMERIS_TYPE":0,"CLASSIFICATION_TYPE":"U","NORAD_CAT_ID":56730,"ELEMENT_SET_NO":999,"REV_AT_EPOCH":15168,"BSTAR":8.1626328e-5,"MEAN_MOTION_DOT":6.46e-6,"MEAN_MOTION_DDOT":0},{"OBJECT_NAME":"FENGYUN 1C DEB","OBJECT_ID":"1999-025AKT","EPOCH":"2026-03-09T22:06:56.045664","MEAN_MOTION":14.76616644,"ECCENTRICITY":0.00200437,"INCLINATION":99.1228,"RA_OF_ASC_NODE":179.7565,"ARG_OF_PERICENTER":230.1287,"MEAN_ANOMALY":129.8157,"EPHEMERIS_TYPE":0,"CLASSIFICATION_TYPE":"U","NORAD_CAT_ID":30553,"ELEMENT_SET_NO":999,"REV_AT_EPOCH":99758,"BSTAR":0.003472328,"MEAN_MOTION_DOT":0.00024353,"MEAN_MOTION_DDOT":0}]
